{"type": "FeatureCollection", "features": [ {"type": "Feature", "properties": {"norad_id": 39122, "name": "EUTELSAT 117 WEST A", "group": "eutelsat", "lat": -0.017928922953483993, "lon": -61.58387895847158, "alt_km": 35777.088600070594, "timestamp": "2025-12-05T22:40:48.230374+00:00", "meta": {"OBJECT_NAME": "EUTELSAT 117 WEST A", "OBJECT_ID": "2013-012A", "EPOCH": "2025-12-05T06:17:38.868288", "MEAN_MOTION": 1.0027047, "ECCENTRICITY": 0.00031392, "INCLINATION": 0.0174, "RA_OF_ASC_NODE": 318.7194, "ARG_OF_PERICENTER": 294.2243, "MEAN_ANOMALY": 159.0023, "EPHEMERIS_TYPE": 0, "CLASSIFICATION_TYPE": "U", "NORAD_CAT_ID": 39122, "ELEMENT_SET_NO": 999, "REV_AT_EPOCH": 4648, "BSTAR": 0, "MEAN_MOTION_DOT": -1e-08, "MEAN_MOTION_DDOT": 0}, "tle": {"line1": "1 39122U 13012A   25339.26225542 -.00000001  00000+0  00000+0 0  9994", "line2": "2 39122   0.0174 318.7194 0003139 294.2243 159.0023  1.00270470 46489"}}, "geometry": {"type": "Point", "coordinates": [-61.58387895847158, -0.017928922953483993]}}, {"type": "Feature", "properties": {"norad_id": 39163, "name": "EUTELSAT 7B", "group": "eutelsat", "lat": 0.08237357272714399, "lon": 62.214591631109485, "alt_km": 35793.10454436341, "timestamp": "2025-12-05T22:40:48.230386+00:00", "meta": {"OBJECT_NAME": "EUTELSAT 7B", "OBJECT_ID": "2013-022A", "EPOCH": "2025-12-05T03:27:25.181280", "MEAN_MOTION": 1.00269942, "ECCENTRICITY": 0.00043428, "INCLINATION": 0.0681, "RA_OF_ASC_NODE": 4.14, "ARG_OF_PERICENTER": 307.2054, "MEAN_ANOMALY": 181.7067, "EPHEMERIS_TYPE": 0, "CLASSIFICATION_TYPE": "U", "NORAD_CAT_ID": 39163, "ELEMENT_SET_NO": 999, "REV_AT_EPOCH": 4601, "BSTAR": 0, "MEAN_MOTION_DOT": 6e-07, "MEAN_MOTION_DDOT": 0}, "tle": {"line1": "1 39163U 13022A   25339.14404145  .00000060  00000+0  00000+0 0  9999", "line2": "2 39163   0.0681   4.1400 0004342 307.2054 181.7067  1.00269942 46016"}}, "geometry": {"type": "Point", "coordinates": [62.214591631109485, 0.08237357272714399]}}, {"type": "Feature", "properties": {"norad_id": 39612, "name": "EXPRESS-AT1", "group": "eutelsat", "lat": 0.014952969149240828, "lon": 111.17997182293996, "alt_km": 35784.83210903423, "timestamp": "2025-12-05T22:40:48.230399+00:00", "meta": {"OBJECT_NAME": "EXPRESS-AT1", "OBJECT_ID": "2014-010A", "EPOCH": "2025-12-05T01:58:41.183904", "MEAN_MOTION": 1.00272499, "ECCENTRICITY": 4.4e-05, "INCLINATION": 0.0166, "RA_OF_ASC_NODE": 302.5758, "ARG_OF_PERICENTER": 226.8234, "MEAN_ANOMALY": 350.4172, "EPHEMERIS_TYPE": 0, "CLASSIFICATION_TYPE": "U", "NORAD_CAT_ID": 39612, "ELEMENT_SET_NO": 999, "REV_AT_EPOCH": 4287, "BSTAR": 0, "MEAN_MOTION_DOT": 9.1e-07, "MEAN_MOTION_DDOT": 0}, "tle": {"line1": "1 39612U 14010A   25339.08242111  .00000091  00000+0  00000+0 0  9996", "line2": "2 39612   0.0166 302.5758 0000440 226.8234 350.4172  1.00272499 42878"}}, "geometry": {"type": "Point", "coordinates": [111.17997182293996, 0.014952969149240828]}}, {"type": "Feature", "properties": {"norad_id": 39613, "name": "EXPRESS-AT2", "group": "eutelsat", "lat": -0.021594418373143992, "lon": -164.9878552334002, "alt_km": 35788.005052768734, "timestamp": "2025-12-05T22:40:48.230411+00:00", "meta": {"OBJECT_NAME": "EXPRESS-AT2", "OBJECT_ID": "2014-010B", "EPOCH": "2025-12-05T10:56:14.358336", "MEAN_MOTION": 1.00269716, "ECCENTRICITY": 0.0001548, "INCLINATION": 0.0195, "RA_OF_ASC_NODE": 354.2354, "ARG_OF_PERICENTER": 302.4165, "MEAN_ANOMALY": 81.7726, "EPHEMERIS_TYPE": 0, "CLASSIFICATION_TYPE": "U", "NORAD_CAT_ID": 39613, "ELEMENT_SET_NO": 999, "REV_AT_EPOCH": 4255, "BSTAR": 0, "MEAN_MOTION_DOT": 0, "MEAN_MOTION_DDOT": 0}, "tle": {"line1": "1 39613U 14010B   25339.45572174  .00000000  00000+0  00000+0 0  9993", "line2": "2 39613   0.0195 354.2354 0001548 302.4165  81.7726  1.00269716 42553"}}, "geometry": {"type": "Point", "coordinates": [-164.9878552334002, -0.021594418373143992]}}, {"type": "Feature", "properties": {"norad_id": 39773, "name": "EUTELSAT 3B", "group": "eutelsat", "lat": 0.07420484576005491, "lon": 58.267772364927524, "alt_km": 35806.170422756084, "timestamp": "2025-12-05T22:40:48.230423+00:00", "meta": {"OBJECT_NAME": "EUTELSAT 3B", "OBJECT_ID": "2014-030A", "EPOCH": "2025-12-05T03:26:17.789280", "MEAN_MOTION": 1.00271208, "ECCENTRICITY": 0.00047708, "INCLINATION": 0.0638, "RA_OF_ASC_NODE": 6.529, "ARG_OF_PERICENTER": 223.3593, "MEAN_ANOMALY": 258.9859, "EPHEMERIS_TYPE": 0, "CLASSIFICATION_TYPE": "U", "NORAD_CAT_ID": 39773, "ELEMENT_SET_NO": 999, "REV_AT_EPOCH": 4212, "BSTAR": 0, "MEAN_MOTION_DOT": 3.2e-07, "MEAN_MOTION_DDOT": 0}, "tle": {"line1": "1 39773U 14030A   25339.14326145  .00000032  00000+0  00000+0 0  9998", "line2": "2 39773   0.0638   6.5290 0004770 223.3593 258.9859  1.00271208 42121"}}, "geometry": {"type": "Point", "coordinates": [58.267772364927524, 0.07420484576005491]}}, {"type": "Feature", "properties": {"norad_id": 40425, "name": "EUTELSAT 115 WEST B", "group": "eutelsat", "lat": 0.005774283878741018, "lon": -59.69179413068326, "alt_km": 35786.7692897764, "timestamp": "2025-12-05T22:40:48.230435+00:00", "meta": {"OBJECT_NAME": "EUTELSAT 115 WEST B", "OBJECT_ID": "2015-010B", "EPOCH": "2025-12-05T04:42:38.564352", "MEAN_MOTION": 1.00273302, "ECCENTRICITY": 4.537e-05, "INCLINATION": 0.0143, "RA_OF_ASC_NODE": 149.4654, "ARG_OF_PERICENTER": 277.0632, "MEAN_ANOMALY": 323.5157, "EPHEMERIS_TYPE": 0, "CLASSIFICATION_TYPE": "U", "NORAD_CAT_ID": 40425, "ELEMENT_SET_NO": 999, "REV_AT_EPOCH": 3944, "BSTAR": 0, "MEAN_MOTION_DOT": -1.3e-07, "MEAN_MOTION_DDOT": 0}, "tle": {"line1": "1 40425U 15010B   25339.19627968 -.00000013  00000+0  00000+0 0  9995", "line2": "2 40425   0.0143 149.4654 0000453 277.0632 323.5157  1.00273302 39441"}}, "geometry": {"type": "Point", "coordinates": [-59.69179413068326, 0.005774283878741018]}}, {"type": "Feature", "properties": {"norad_id": 40875, "name": "EUTELSAT 8 WEST B", "group": "eutelsat", "lat": 0.07823306715660909, "lon": 47.213953139103225, "alt_km": 35801.55626447336, "timestamp": "2025-12-05T22:40:48.230447+00:00", "meta": {"OBJECT_NAME": "EUTELSAT 8 WEST B", "OBJECT_ID": "2015-039B", "EPOCH": "2025-12-05T03:23:10.587264", "MEAN_MOTION": 1.00271612, "ECCENTRICITY": 0.00041457, "INCLINATION": 0.0649, "RA_OF_ASC_NODE": 350.9505, "ARG_OF_PERICENTER": 264.7331, "MEAN_ANOMALY": 221.3234, "EPHEMERIS_TYPE": 0, "CLASSIFICATION_TYPE": "U", "NORAD_CAT_ID": 40875, "ELEMENT_SET_NO": 999, "REV_AT_EPOCH": 3771, "BSTAR": 0, "MEAN_MOTION_DOT": -5.3e-07, "MEAN_MOTION_DDOT": 0}, "tle": {"line1": "1 40875U 15039B   25339.14109476 -.00000053  00000+0  00000+0 0  9993", "line2": "2 40875   0.0649 350.9505 0004145 264.7331 221.3234  1.00271612 37717"}}, "geometry": {"type": "Point", "coordinates": [47.213953139103225, 0.07823306715660909]}}, {"type": "Feature", "properties": {"norad_id": 41310, "name": "EUTELSAT 9B", "group": "eutelsat", "lat": 0.013861418769610844, "lon": 64.19334845496587, "alt_km": 35805.624407358715, "timestamp": "2025-12-05T22:40:48.230459+00:00", "meta": {"OBJECT_NAME": "EUTELSAT 9B", "OBJECT_ID": "2016-005A", "EPOCH": "2025-12-05T03:28:02.620992", "MEAN_MOTION": 1.00271858, "ECCENTRICITY": 0.00049976, "INCLINATION": 0.0704, "RA_OF_ASC_NODE": 75.5846, "ARG_OF_PERICENTER": 190.7087, "MEAN_ANOMALY": 228.9131, "EPHEMERIS_TYPE": 0, "CLASSIFICATION_TYPE": "U", "NORAD_CAT_ID": 41310, "ELEMENT_SET_NO": 999, "REV_AT_EPOCH": 3617, "BSTAR": 0, "MEAN_MOTION_DOT": 7.4e-07, "MEAN_MOTION_DDOT": 0}, "tle": {"line1": "1 41310U 16005A   25339.14447478  .00000074  00000+0  00000+0 0  9991", "line2": "2 41310   0.0704  75.5846 0004997 190.7087 228.9131  1.00271858 36173"}}, "geometry": {"type": "Point", "coordinates": [64.19334845496587, 0.013861418769610844]}}, {"type": "Feature", "properties": {"norad_id": 41382, "name": "EUTELSAT 65 WEST A", "group": "eutelsat", "lat": 0.00592290888741727, "lon": -9.994875052761206, "alt_km": 35786.10180646064, "timestamp": "2025-12-05T22:40:48.230484+00:00", "meta": {"OBJECT_NAME": "EUTELSAT 65 WEST A", "OBJECT_ID": "2016-014A", "EPOCH": "2025-12-05T06:07:38.867808", "MEAN_MOTION": 1.00269991, "ECCENTRICITY": 0.00028669, "INCLINATION": 0.0492, "RA_OF_ASC_NODE": 350.5191, "ARG_OF_PERICENTER": 272.1741, "MEAN_ANOMALY": 198.3295, "EPHEMERIS_TYPE": 0, "CLASSIFICATION_TYPE": "U", "NORAD_CAT_ID": 41382, "ELEMENT_SET_NO": 999, "REV_AT_EPOCH": 3559, "BSTAR": 0, "MEAN_MOTION_DOT": -2.64e-06, "MEAN_MOTION_DDOT": 0}, "tle": {"line1": "1 41382U 16014A   25339.25531097 -.00000264  00000+0  00000+0 0  9995", "line2": "2 41382   0.0492 350.5191 0002866 272.1741 198.3295  1.00269991 35591"}}, "geometry": {"type": "Point", "coordinates": [-9.994875052761206, 0.00592290888741727]}}, {"type": "Feature", "properties": {"norad_id": 41589, "name": "EUTELSAT 117 WEST B", "group": "eutelsat", "lat": 0.00934826584511907, "lon": -61.830481761601085, "alt_km": 35787.89145642248, "timestamp": "2025-12-05T22:40:48.230500+00:00", "meta": {"OBJECT_NAME": "EUTELSAT 117 WEST B", "OBJECT_ID": "2016-038B", "EPOCH": "2025-12-04T23:26:32.000928", "MEAN_MOTION": 1.00268963, "ECCENTRICITY": 2.521e-05, "INCLINATION": 0.0075, "RA_OF_ASC_NODE": 147.6568, "ARG_OF_PERICENTER": 325.2322, "MEAN_ANOMALY": 195.7827, "EPHEMERIS_TYPE": 0, "CLASSIFICATION_TYPE": "U", "NORAD_CAT_ID": 41589, "ELEMENT_SET_NO": 999, "REV_AT_EPOCH": 3471, "BSTAR": 0, "MEAN_MOTION_DOT": 2e-08, "MEAN_MOTION_DDOT": 0}, "tle": {"line1": "1 41589U 16038B   25338.97675927  .00000002  00000+0  00000+0 0  9998", "line2": "2 41589   0.0075 147.6568 0000252 325.2322 195.7827  1.00268963 34715"}}, "geometry": {"type": "Point", "coordinates": [-61.830481761601085, 0.00934826584511907]}}]}